NORAD_CAT_ID,OBJECT_NAME,OBJECT_TYPE,EPOCH,MEAN_MOTION,ECCENTRICITY,INCLINATION,RA_OF_ASC_NODE,ARG_OF_PERICENTER,MEAN_ANOMALY,BSTAR,MEAN_MOTION_DOT,MEAN_MOTION_DDOT,TLE_LINE0,TLE_LINE1,TLE_LINE2,SEMIMAJOR_AXIS,PERIOD,APOGEE,PERIGEE,DECAYED
52666.0,STARLINK-4079,PAYLOAD,2022-12-03 13:07:04,15.08836902,0.0002522,53.2172,105.8656,57.0455,303.0779,-8.7113e-06,-4.27e-06,0.0,0 STARLINK-4079,1 52666U 22053L   22337.54657562 -.00000427  00000-0 -87113-5 0  9994,2 52666  53.2172 105.8656 0002522  57.0455 303.0779 15.08836902 31077,6917.89,95.438,541.5,538.01,0.0
52666.0,STARLINK-4079,PAYLOAD,2022-12-03 16:17:50,15.08836591,0.0002489,53.2171,105.2712,57.9793,302.1441,-1.9797e-06,-3.2e-06,0.0,0 STARLINK-4079,1 52666U 22053L   22337.67905577 -.00000320  00000-0 -19797-5 0  9995,2 52666  53.2171 105.2712 0002489  57.9793 302.1441 15.08836591 31091,6917.891,95.438,541.4780000000002,538.034,0.0
52666.0,STARLINK-4079,PAYLOAD,2022-12-04 01:50:08,15.08842966,0.0002398,53.2167,103.487,55.2585,304.8633,5.1533e-05,5.32e-06,0.0,0 STARLINK-4079,1 52666U 22053L   22338.07648997  .00000532  00000-0  51533-4 0  9996,2 52666  53.2167 103.4870 0002398  55.2585 304.8633 15.08842966 31152,6917.871,95.437,541.395,538.077,0.0
52666.0,STARLINK-4079,PAYLOAD,2022-12-04 14:33:13,15.08848051,0.0002328,53.2166,101.108,54.3474,305.7735,0.00015619,2.199e-05,0.0,0 STARLINK-4079,1 52666U 22053L   22338.60640313  .00002199  00000-0  15619-3 0  9994,2 52666  53.2166 101.1080 0002328  54.3474 305.7735 15.08848051 31232,6917.856,95.437,541.331,538.11,0.0
52666.0,STARLINK-4079,PAYLOAD,2022-12-04 17:44:00,15.08837954,0.0002448,53.2169,100.5138,51.5179,308.6033,0.00011616,1.561e-05,0.0,0 STARLINK-4079,1 52666U 22053L   22338.73889160  .00001561  00000-0  11616-3 0  9998,2 52666  53.2169 100.5138 0002448  51.5179 308.6033 15.08837954 31251,6917.887,95.438,541.445,538.058,0.0
52666.0,STARLINK-4079,PAYLOAD,2022-12-05 01:40:55,15.08842763,0.0002404,53.2171,99.027,54.1794,305.9421,0.00014649,2.044e-05,0.0,0 STARLINK-4079,1 52666U 22053L   22339.07008803  .00002044  00000-0  14649-3 0  9999,2 52666  53.2171  99.0270 0002404  54.1794 305.9421 15.08842763 31308,6917.871999999999,95.437,541.4,538.0740000000002,0.0
52666.0,STARLINK-4079,PAYLOAD,2022-12-05 14:24:00,15.08844951,0.000242,53.2172,96.648,55.1196,305.0023,0.0001463,2.041e-05,0.0,0 STARLINK-4079,1 52666U 22053L   22339.60000629  .00002041  00000-0  14630-3 0  9993,2 52666  53.2172  96.6480 0002420  55.1196 305.0023 15.08844951 31388,6917.865,95.437,541.404,538.056,0.0
52666.0,STARLINK-4079,PAYLOAD,2022-12-06 14:14:47,15.08848389,0.0002363,53.2178,92.1881,55.9564,304.1652,2.8636e-05,1.67e-06,0.0,0 STARLINK-4079,1 52666U 22053L   22340.59360277  .00000167  00000-0  28636-4 0  9990,2 52666  53.2178  92.1881 0002363  55.9564 304.1652 15.08848389 31537,6917.855,95.437,541.354,538.085,0.0
52666.0,STARLINK-4079,PAYLOAD,2022-12-06 19:00:57,15.08841961,0.0002223,53.2174,91.296,49.4154,310.7031,-6.1404e-05,-1.266e-05,0.0,0 STARLINK-4079,1 52666U 22053L   22340.79232760 -.00001266  00000-0 -61404-4 0  9990,2 52666  53.2174  91.2960 0002223  49.4154 310.7031 15.08841961 31565,6917.874,95.437,541.2769999999998,538.202,0.0
52666.0,STARLINK-4079,PAYLOAD,2022-12-07 17:16:21,15.08840463,0.0002202,53.2169,87.1324,48.8373,311.2808,-7.321599999999999e-06,-4.05e-06,0.0,0 STARLINK-4079,1 52666U 22053L   22341.71968797 -.00000405  00000-0 -73216-5 0  9998,2 52666  53.2169  87.1324 0002202  48.8373 311.2808 15.08840463 31700,6917.879,95.438,541.2669999999998,538.221,0.0
52666.0,STARLINK-4079,PAYLOAD,2022-12-07 23:37:52,15.088530800000004,0.0001854,53.2181,85.9425,48.2829,311.8321,0.00010658,1.409e-05,0.0,0 STARLINK-4079,1 52666U 22053L   22341.98463543  .00001409  00000-0  10658-3 0  9998,2 52666  53.2181  85.9425 0001854  48.2829 311.8321 15.08853080 31743,6917.84,95.437,540.988,538.423,0.0
52666.0,STARLINK-4079,PAYLOAD,2022-12-08 07:34:48,15.08847874,0.0002033,53.2172,84.4554,50.6422,309.475,0.00017931,2.567e-05,0.0,0 STARLINK-4079,1 52666U 22053L   22342.31583943  .00002567  00000-0  17931-3 0  9990,2 52666  53.2172  84.4554 0002033  50.6422 309.4750 15.08847874 31794,6917.856,95.437,541.128,538.315,0.0
52666.0,STARLINK-4079,PAYLOAD,2022-12-08 13:56:20,15.08853321,0.0002141,53.2169,83.2667,46.7349,313.3821,0.00024787,3.66e-05,0.0,0 STARLINK-4079,1 52666U 22053L   22342.58079584  .00003660  00000-0  24787-3 0  9992,2 52666  53.2169  83.2667 0002141  46.7349 313.3821 15.08853321 31838,6917.84,95.437,541.186,538.224,0.0
52666.0,STARLINK-4079,PAYLOAD,2022-12-08 23:28:39,15.08859729,0.0002095,53.2182,81.4849,49.8177,310.2998,0.00026088,3.868e-05,0.0,0 STARLINK-4079,1 52666U 22053L   22342.97822941  .00003868  00000-0  26088-3 0  9994,2 52666  53.2182  81.4849 0002095  49.8177 310.2998 15.08859729 31891,6917.82,95.436,541.134,538.236,0.0
52666.0,STARLINK-4079,PAYLOAD,2022-12-10 10:27:08,15.08843919,0.000126,53.2181,74.9422,11.8035,348.2987,-0.00041843,-6.942e-05,0.0,0 STARLINK-4079,1 52666U 22053L   22344.43551715 -.00006942  00000-0 -41843-3 0  9999,2 52666  53.2181  74.9422 0001260  11.8035 348.2987 15.08843919 32118,6917.868,95.437,540.605,538.862,0.0
52666.0,STARLINK-4079,PAYLOAD,2022-12-10 13:37:56,15.08824194,0.0001867,53.2171,74.3462,33.5819,326.5291,-0.00020443,-3.539e-05,0.0,0 STARLINK-4079,1 52666U 22053L   22344.56801321 -.00003539  00000-0 -20443-3 0  9996,2 52666  53.2171  74.3462 0001867  33.5819 326.5291 15.08824194 32132,6917.929,95.439,541.085,538.502,0.0
52666.0,STARLINK-4079,PAYLOAD,2022-12-10 15:13:19,15.08825667,0.0001702,53.2174,74.0483,36.3399,323.7709,-0.00015207,-2.706e-05,0.0,0 STARLINK-4079,1 52666U 22053L   22344.63425273 -.00002706  00000-0 -15207-3 0  9999,2 52666  53.2174  74.0483 0001702  36.3399 323.7709 15.08825667 32147,6917.924,95.438,540.967,538.612,0.0
52666.0,STARLINK-4079,PAYLOAD,2022-12-11 10:17:55,15.08863632,0.0001989,53.2169,70.4807,29.131,330.9793,-0.00050983,-8.398e-05,0.0,0 STARLINK-4079,1 52666U 22053L   22345.42911691 -.00008398  00000-0 -50983-3 0  9994,2 52666  53.2169  70.4807 0001989  29.1310 330.9793 15.08863632 32261,6917.808000000001,95.436,541.049,538.297,0.0
52666.0,STARLINK-4079,PAYLOAD,2022-12-11 13:28:44,15.08842728,0.0002144,53.2166,69.8862,37.4754,322.6388,0.00079498,0.00012388,0.0,0 STARLINK-4079,1 52666U 22053L   22345.56162080  .00012388  00000-0  79498-3 0  9993,2 52666  53.2166  69.8862 0002144  37.4754 322.6388 15.08842728 32282,6917.871999999999,95.437,541.22,538.254,0.0
52666.0,STARLINK-4079,PAYLOAD,2022-12-11 18:14:53,15.08856234,0.0002936,53.2171,68.9962,33.8506,326.2673,0.00077193,0.00012024,0.0,0 STARLINK-4079,1 52666U 22053L   22345.76034140  .00012024  00000-0  77193-3 0  9997,2 52666  53.2171  68.9962 0002936  33.8506 326.2673 15.08856234 32311,6917.831,95.437,541.727,537.665,0.0
52666.0,STARLINK-4079,PAYLOAD,2022-12-12 10:08:44,15.08854226,0.0002163,53.2161,66.0201,41.3109,318.8046,0.00043224,6.6e-05,0.0,0 STARLINK-4079,1 52666U 22053L   22346.42273727  .00006600  00000-0  43224-3 0  9998,2 52666  53.2161  66.0201 0002163  41.3109 318.8046 15.08854226 32411,6917.837,95.437,541.198,538.206,0.0
52666.0,STARLINK-4079,PAYLOAD,2022-12-12 11:44:07,15.0885266,0.0002129,53.216,65.7224,41.7459,318.3695,0.00034171,5.156e-05,0.0,0 STARLINK-4079,1 52666U 22053L   22346.48897642  .00005156  00000-0  34171-3 0  9998,2 52666  53.2160  65.7224 0002129  41.7459 318.3695 15.08852660 32421,6917.842,95.437,541.18,538.234,0.0
52666.0,STARLINK-4079,PAYLOAD,2022-12-12 16:30:16,15.08851083,0.0002288,53.2163,64.8315,36.8644,323.2505,0.00020297,2.944e-05,0.0,0 STARLINK-4079,1 52666U 22053L   22346.68769618  .00002944  00000-0  20297-3 0  9997,2 52666  53.2163  64.8315 0002288  36.8644 323.2505 15.08851083 32458,6917.847,95.437,541.294,538.129,0.0
52666.0,STARLINK-4079,PAYLOAD,2022-12-12 22:51:49,15.08844934,0.0002043,53.2154,63.6392,42.676,317.4391,2.7662e-05,1.52e-06,0.0,0 STARLINK-4079,1 52666U 22053L   22346.95265571  .00000152  00000-0  27662-4 0  9999,2 52666  53.2154  63.6392 0002043  42.6760 317.4391 15.08844934 32492,6917.865,95.437,541.144,538.317,0.0
52666.0,STARLINK-4079,PAYLOAD,2022-12-13 09:59:31,15.08839095,0.0002019,53.2159,61.5597,36.8067,323.3064,-1.6075e-05,-5.44e-06,0.0,0 STARLINK-4079,1 52666U 22053L   22347.41633706 -.00000544  00000-0 -16075-4 0  9993,2 52666  53.2159  61.5597 0002019  36.8067 323.3064 15.08839095 32562,6917.8830000000025,95.438,541.145,538.351,0.0
52666.0,STARLINK-4079,PAYLOAD,2022-12-13 16:21:03,15.08845575,0.0001823,53.2155,60.3681,44.6532,315.4607,9.7875e-05,1.27e-05,0.0,0 STARLINK-4079,1 52666U 22053L   22347.68129590  .00001270  00000-0  97875-4 0  9995,2 52666  53.2155  60.3681 0001823  44.6532 315.4607 15.08845575 32605,6917.863,95.437,540.989,538.467,0.0
52666.0,STARLINK-4079,PAYLOAD,2022-12-14 05:04:08,15.0884794,0.0001929,53.2155,57.9892,48.0284,312.0873,0.00019442,2.808e-05,0.0,0 STARLINK-4079,1 52666U 22053L   22348.21121521  .00002808  00000-0  19442-3 0  9992,2 52666  53.2155  57.9892 0001929  48.0284 312.0873 15.08847940 32684,6917.856,95.437,541.056,538.387,0.0
52666.0,STARLINK-4079,PAYLOAD,2022-12-14 11:25:41,15.08852372,0.0002063,53.2157,56.8001,42.7677,317.3475,0.00026001,3.854e-05,0.0,0 STARLINK-4079,1 52666U 22053L   22348.47617298  .00003854  00000-0  26001-3 0  9992,2 52666  53.2157  56.8001 0002063  42.7677 317.3475 15.08852372 32729,6917.843000000003,95.437,541.135,538.28,0.0
52666.0,STARLINK-4079,PAYLOAD,2022-12-15 11:16:28,15.08843418,0.0002256,53.2165,52.3414,35.24800000000001,324.8661,0.00012721,1.737e-05,0.0,0 STARLINK-4079,1 52666U 22053L   22349.46977543  .00001737  00000-0  12721-3 0  9996,2 52666  53.2165  52.3414 0002256  35.2480 324.8661 15.08843418 32877,6917.87,95.437,541.2959999999998,538.174,0.0
